[
    {
        "OBJECT_NAME": "STARLINK-1008",
        "OBJECT_ID": "2019-074B",
        "EPOCH": "2025-12-12T01:27:22.807296",
        "MEAN_MOTION": 15.06408388,
        "ECCENTRICITY": 0.00012815,
        "INCLINATION": 53.0535,
        "RA_OF_ASC_NODE": 219.9992,
        "ARG_OF_PERICENTER": 85.6218,
        "MEAN_ANOMALY": 274.4917,
        "EPHEMERIS_TYPE": 0,
        "CLASSIFICATION_TYPE": "U",
        "NORAD_CAT_ID": 44714,
        "ELEMENT_SET_NO": 999,
        "REV_AT_EPOCH": 33554,
        "BSTAR": 9.611935e-05,
        "MEAN_MOTION_DOT": 1.151e-05,
        "MEAN_MOTION_DDOT": 0.0
    },
    {
        "OBJECT_NAME": "STARLINK-1012",
        "OBJECT_ID": "2019-074F",
        "EPOCH": "2025-12-12T00:55:32.114496",
        "MEAN_MOTION": 15.06403971,
        "ECCENTRICITY": 0.0001503,
        "INCLINATION": 53.0538,
        "RA_OF_ASC_NODE": 220.0967,
        "ARG_OF_PERICENTER": 87.4314,
        "MEAN_ANOMALY": 272.6847,
        "EPHEMERIS_TYPE": 0,
        "CLASSIFICATION_TYPE": "U",
        "NORAD_CAT_ID": 44718,
        "ELEMENT_SET_NO": 999,
        "REV_AT_EPOCH": 33553,
        "BSTAR": 3.9679131e-05,
        "MEAN_MOTION_DOT": 3.1e-06,
        "MEAN_MOTION_DDOT": 0.0
    },
    {
        "OBJECT_NAME": "STARLINK-1031",
        "OBJECT_ID": "2019-074Z",
        "EPOCH": "2025-12-12T00:00:04.999104",
        "MEAN_MOTION": 15.5885972,
        "ECCENTRICITY": 0.0007648,
        "INCLINATION": 53.0482,
        "RA_OF_ASC_NODE": 195.8764,
        "ARG_OF_PERICENTER": 85.8985,
        "MEAN_ANOMALY": 12.1493,
        "EPHEMERIS_TYPE": 0,
        "CLASSIFICATION_TYPE": "U",
        "NORAD_CAT_ID": 44736,
        "ELEMENT_SET_NO": 999,
        "REV_AT_EPOCH": 596,
        "BSTAR": 0.0020734,
        "MEAN_MOTION_DOT": 0.00166524,
        "MEAN_MOTION_DDOT": 0.0
    },
    {
        "OBJECT_NAME": "STARLINK-1036",
        "OBJECT_ID": "2019-074AE",
        "EPOCH": "2025-12-12T00:05:05.982144",
        "MEAN_MOTION": 15.06416269,
        "ECCENTRICITY": 0.0001371,
        "INCLINATION": 53.0533,
        "RA_OF_ASC_NODE": 240.2515,
        "ARG_OF_PERICENTER": 81.5902,
        "MEAN_ANOMALY": 278.5242,
        "EPHEMERIS_TYPE": 0,
        "CLASSIFICATION_TYPE": "U",
        "NORAD_CAT_ID": 44741,
        "ELEMENT_SET_NO": 999,
        "REV_AT_EPOCH": 33525,
        "BSTAR": -0.00030226,
        "MEAN_MOTION_DOT": -4.783e-05,
        "MEAN_MOTION_DDOT": 0.0
    },
    {
        "OBJECT_NAME": "STARLINK-1042",
        "OBJECT_ID": "2019-074AL",
        "EPOCH": "2025-12-10T18:48:36.767232",
        "MEAN_MOTION": 15.45228699,
        "ECCENTRICITY": 0.00022786,
        "INCLINATION": 53.0452,
        "RA_OF_ASC_NODE": 159.8253,
        "ARG_OF_PERICENTER": 194.2798,
        "MEAN_ANOMALY": 165.8143,
        "EPHEMERIS_TYPE": 0,
        "CLASSIFICATION_TYPE": "U",
        "NORAD_CAT_ID": 44747,
        "ELEMENT_SET_NO": 999,
        "REV_AT_EPOCH": 33630,
        "BSTAR": 0.00061081179,
        "MEAN_MOTION_DOT": 0.00029175,
        "MEAN_MOTION_DDOT": 0.0
    },
    {
        "OBJECT_NAME": "STARLINK-1046",
        "OBJECT_ID": "2019-074AQ",
        "EPOCH": "2025-12-12T01:22:03.884160",
        "MEAN_MOTION": 15.06431211,
        "ECCENTRICITY": 0.00013712,
        "INCLINATION": 53.0544,
        "RA_OF_ASC_NODE": 260.0161,
        "ARG_OF_PERICENTER": 100.6363,
        "MEAN_ANOMALY": 259.4781,
        "EPHEMERIS_TYPE": 0,
        "CLASSIFICATION_TYPE": "U",
        "NORAD_CAT_ID": 44751,
        "ELEMENT_SET_NO": 999,
        "REV_AT_EPOCH": 33498,
        "BSTAR": 0.0012286407,
        "MEAN_MOTION_DOT": 0.00018082,
        "MEAN_MOTION_DDOT": 0.0
    },
    {
        "OBJECT_NAME": "STARLINK-1053",
        "OBJECT_ID": "2019-074AX",
        "EPOCH": "2025-12-11T12:17:51.080064",
        "MEAN_MOTION": 15.66991143,
        "ECCENTRICITY": 0.00034997,
        "INCLINATION": 53.0377,
        "RA_OF_ASC_NODE": 163.9832,
        "ARG_OF_PERICENTER": 169.0919,
        "MEAN_ANOMALY": 191.0173,
        "EPHEMERIS_TYPE": 0,
        "CLASSIFICATION_TYPE": "U",
        "NORAD_CAT_ID": 44758,
        "ELEMENT_SET_NO": 999,
        "REV_AT_EPOCH": 33629,
        "BSTAR": 0.0010070875,
        "MEAN_MOTION_DOT": 0.00110075,
        "MEAN_MOTION_DDOT": 0.0
    },
    {
        "OBJECT_NAME": "STARLINK-1112",
        "OBJECT_ID": "2020-001M",
        "EPOCH": "2025-12-12T08:00:13.999968",
        "MEAN_MOTION": 15.64372612,
        "ECCENTRICITY": 0.00078239,
        "INCLINATION": 53.0483,
        "RA_OF_ASC_NODE": 321.0179,
        "ARG_OF_PERICENTER": 36.1438,
        "MEAN_ANOMALY": 311.8083,
        "EPHEMERIS_TYPE": 0,
        "CLASSIFICATION_TYPE": "U",
        "NORAD_CAT_ID": 44925,
        "ELEMENT_SET_NO": 999,
        "REV_AT_EPOCH": 583,
        "BSTAR": 0.0026151641,
        "MEAN_MOTION_DOT": 0.00263331,
        "MEAN_MOTION_DDOT": 0.0
    },
    {
        "OBJECT_NAME": "STARLINK-1114",
        "OBJECT_ID": "2020-001P",
        "EPOCH": "2025-12-12T06:19:18.462432",
        "MEAN_MOTION": 15.06395426,
        "ECCENTRICITY": 0.0001444,
        "INCLINATION": 53.056,
        "RA_OF_ASC_NODE": 19.092,
        "ARG_OF_PERICENTER": 106.8063,
        "MEAN_ANOMALY": 253.3085,
        "EPHEMERIS_TYPE": 0,
        "CLASSIFICATION_TYPE": "U",
        "NORAD_CAT_ID": 44927,
        "ELEMENT_SET_NO": 999,
        "REV_AT_EPOCH": 32667,
        "BSTAR": 0.0003640442,
        "MEAN_MOTION_DOT": 5.144e-05,
        "MEAN_MOTION_DDOT": 0.0
    },
    {
        "OBJECT_NAME": "STARLINK-1144",
        "OBJECT_ID": "2020-001V",
        "EPOCH": "2025-12-12T08:00:13.999968",
        "MEAN_MOTION": 15.73981554,
        "ECCENTRICITY": 0.00024017,
        "INCLINATION": 53.0413,
        "RA_OF_ASC_NODE": 295.539,
        "ARG_OF_PERICENTER": 109.6033,
        "MEAN_ANOMALY": 24.0712,
        "EPHEMERIS_TYPE": 0,
        "CLASSIFICATION_TYPE": "U",
        "NORAD_CAT_ID": 44933,
        "ELEMENT_SET_NO": 999,
        "REV_AT_EPOCH": 591,
        "BSTAR": 0.0017990946,
        "MEAN_MOTION_DOT": 0.00269061,
        "MEAN_MOTION_DDOT": 0.0
    },
    {
        "OBJECT_NAME": "STARLINK-1094",
        "OBJECT_ID": "2020-001AD",
        "EPOCH": "2025-12-12T06:59:06.717408",
        "MEAN_MOTION": 15.06405702,
        "ECCENTRICITY": 0.00014919,
        "INCLINATION": 53.0574,
        "RA_OF_ASC_NODE": 358.969,
        "ARG_OF_PERICENTER": 95.27,
        "MEAN_ANOMALY": 264.846,
        "EPHEMERIS_TYPE": 0,
        "CLASSIFICATION_TYPE": "U",
        "NORAD_CAT_ID": 44941,
        "ELEMENT_SET_NO": 999,
        "REV_AT_EPOCH": 32695,
        "BSTAR": 0.00024606051,
        "MEAN_MOTION_DOT": 3.386e-05,
        "MEAN_MOTION_DDOT": 0.0
    },
    {
        "OBJECT_NAME": "STARLINK-1131",
        "OBJECT_ID": "2020-006D",
        "EPOCH": "2025-12-12T06:00:49.234176",
        "MEAN_MOTION": 15.06405211,
        "ECCENTRICITY": 0.00014066,
        "INCLINATION": 53.0557,
        "RA_OF_ASC_NODE": 319.6901,
        "ARG_OF_PERICENTER": 101.8594,
        "MEAN_ANOMALY": 258.2553,
        "EPHEMERIS_TYPE": 0,
        "CLASSIFICATION_TYPE": "U",
        "NORAD_CAT_ID": 45047,
        "ELEMENT_SET_NO": 999,
        "REV_AT_EPOCH": 32327,
        "BSTAR": 0.00019343771,
        "MEAN_MOTION_DOT": 2.601e-05,
        "MEAN_MOTION_DDOT": 0.0
    }
]