STARLINK-1008           
1 44714U 19074B   25346.06068064  .00001151  00000+0  96119-4 0  9998
2 44714  53.0535 219.9992 0001281  85.6218 274.4917 15.06408388335543
STARLINK-1012           
1 44718U 19074F   25346.03856614  .00000310  00000+0  39679-4 0  9999
2 44718  53.0538 220.0967 0001503  87.4314 272.6847 15.06403971335533
STARLINK-1031           
1 44736U 19074Z   25346.00005786  .00166524  00000+0  20734-2 0  9992
2 44736  53.0482 195.8764 0007648  85.8985  12.1493 15.58859720  5966
STARLINK-1036           
1 44741U 19074AE  25346.00354146 -.00004783  00000+0 -30226-3 0  9993
2 44741  53.0533 240.2515 0001371  81.5902 278.5242 15.06416269335255
STARLINK-1042           
1 44747U 19074AL  25344.78375888  .00029175  00000+0  61081-3 0  9991
2 44747  53.0452 159.8253 0002278 194.2798 165.8143 15.45228699336303
STARLINK-1046           
1 44751U 19074AQ  25346.05698940  .00018082  00000+0  12286-2 0  9992
2 44751  53.0544 260.0161 0001371 100.6363 259.4781 15.06431211334988
STARLINK-1053           
1 44758U 19074AX  25345.51239676  .00110075  00000+0  10071-2 0  9991
2 44758  53.0377 163.9832 0003499 169.0919 191.0173 15.66991143336297
STARLINK-1112           
1 44925U 20001M   25346.33349537  .00263331  00000+0  26152-2 0  9999
2 44925  53.0483 321.0179 0007823  36.1438 311.8083 15.64372612  5834
STARLINK-1114           
1 44927U 20001P   25346.26340813  .00005144  00000+0  36404-3 0  9999
2 44927  53.0560  19.0920 0001444 106.8063 253.3085 15.06395426326676
STARLINK-1144           
1 44933U 20001V   25346.33349537  .00269061  00000+0  17991-2 0  9995
2 44933  53.0413 295.5390 0002401 109.6033  24.0712 15.73981554  5912
STARLINK-1094           
1 44941U 20001AD  25346.29104997  .00003386  00000+0  24606-3 0  9996
2 44941  53.0574 358.9690 0001491  95.2700 264.8460 15.06405702326951
STARLINK-1131           
1 45047U 20006D   25346.25056984  .00002601  00000+0  19344-3 0  9999
2 45047  53.0557 319.6901 0001406 101.8594 258.2553 15.06405211323277
